{
  "constellation": "oneweb",
  "timestamp": "2025-07-21T05:06:13.717346+00:00",
  "satellite_count": 651,
  "data": [
    {
      "satellite_name": "ONEWEB-0131",
      "catalog_number": 47277,
      "epoch_year": 2025,
      "epoch_day": 201.55500932,
      "first_derivative": -5.01e-06,
      "second_derivative": 0.0,
      "drag_term": -0.0014280999999999999,
      "inclination": 87.8855,
      "right_ascension": 56.6135,
      "eccentricity": 0.0001874,
      "argument_of_perigee": 83.4762,
      "mean_anomaly": 276.658,
      "mean_motion": 13.12443229,
      "revolution_number": 22118,
      "line1": "1 47277U 20100V   25201.55500932 -.00000501  00000+0 -14281-2 0  9994",
      "line2": "2 47277  87.8855  56.6135 0001874  83.4762 276.6580 13.12443229221185",
      "last_updated": "2025-07-21T05:06:13.713966+00:00",
      "constellation": "oneweb"
    },
    {
      "satellite_name": "ONEWEB-0132",
      "catalog_number": 47278,
      "epoch_year": 2025,
      "epoch_day": 201.88916549,
      "first_derivative": 4.01e-06,
      "second_derivative": 0.0,
      "drag_term": 0.0,
      "inclination": 87.8861,
      "right_ascension": 56.5483,
      "eccentricity": 0.0001807,
      "argument_of_perigee": 89.7415,
      "mean_anomaly": 270.3921,
      "mean_motion": 13.12442188,
      "revolution_number": 22112,
      "line1": "1 47278U 20100W   25201.88916549  .00000401  00000+0  10792-2 0  9996",
      "line2": "2 47278  87.8861  56.5483 0001807  89.7415 270.3921 13.12442188221125",
      "last_updated": "2025-07-21T05:06:13.713968+00:00",
      "constellation": "oneweb"
    },
    {
      "satellite_name": "ONEWEB-0133",
      "catalog_number": 47279,
      "epoch_year": 2025,
      "epoch_day": 201.52405853,
      "first_derivative": 1.55e-06,
      "second_derivative": 0.0,
      "drag_term": 0.0,
      "inclination": 87.8849,
      "right_ascension": 56.5974,
      "eccentricity": 0.0001918,
      "argument_of_perigee": 83.4832,
      "mean_anomaly": 276.6515,
      "mean_motion": 13.12441189,
      "revolution_number": 22123,
      "line1": "1 47279U 20100X   25201.52405853  .00000155  00000+0  39527-3 0  9993",
      "line2": "2 47279  87.8849  56.5974 0001918  83.4832 276.6515 13.12441189221234",
      "last_updated": "2025-07-21T05:06:13.713970+00:00",
      "constellation": "oneweb"
    },
    {
      "satellite_name": "ONEWEB-0134",
      "catalog_number": 47280,
      "epoch_year": 2025,
      "epoch_day": 201.49336581,
      "first_derivative": -2.4e-07,
      "second_derivative": 0.0,
      "drag_term": -0.00010177,
      "inclination": 87.8853,
      "right_ascension": 56.5866,
      "eccentricity": 0.0001965,
      "argument_of_perigee": 77.5423,
      "mean_anomaly": 282.5926,
      "mean_motion": 13.12444263,
      "revolution_number": 22120,
      "line1": "1 47280U 20100Y   25201.49336581 -.00000024  00000+0 -10177-3 0  9999",
      "line2": "2 47280  87.8853  56.5866 0001965  77.5423 282.5926 13.12444263221208",
      "last_updated": "2025-07-21T05:06:13.713972+00:00",
      "constellation": "oneweb"
    },
    {
      "satellite_name": "ONEWEB-0135",
      "catalog_number": 47281,
      "epoch_year": 2025,
      "epoch_day": 201.31169515,
      "first_derivative": -2.82e-06,
      "second_derivative": 0.0,
      "drag_term": -0.00082044,
      "inclination": 87.8852,
      "right_ascension": 56.6616,
      "eccentricity": 0.0002167,
      "argument_of_perigee": 77.422,
      "mean_anomaly": 282.7151,
      "mean_motion": 13.12441375,
      "revolution_number": 22120,
      "line1": "1 47281U 20100Z   25201.31169515 -.00000282  00000+0 -82044-3 0  9990",
      "line2": "2 47281  87.8852  56.6616 0002167  77.4220 282.7151 13.12441375221204",
      "last_updated": "2025-07-21T05:06:13.713974+00:00",
      "constellation": "oneweb"
    },
    {
      "satellite_name": "ONEWEB-0136",
      "catalog_number": 47282,
      "epoch_year": 2025,
      "epoch_day": 201.33115635,
      "first_derivative": -4.1e-06,
      "second_derivative": 0.0,
      "drag_term": -0.0011763,
      "inclination": 87.8859,
      "right_ascension": 56.625,
      "eccentricity": 0.0002025,
      "argument_of_perigee": 71.6647,
      "mean_anomaly": 288.4702,
      "mean_motion": 13.12443424,
      "revolution_number": 22113,
      "line1": "1 47282U 20100AA  25201.33115635 -.00000410  00000+0 -11763-2 0  9999",
      "line2": "2 47282  87.8859  56.6250 0002025  71.6647 288.4702 13.12443424221132",
      "last_updated": "2025-07-21T05:06:13.713976+00:00",
      "constellation": "oneweb"
    },
    {
      "satellite_name": "ONEWEB-0137",
      "catalog_number": 47283,
      "epoch_year": 2025,
      "epoch_day": 201.89889424,
      "first_derivative": 4.23e-06,
      "second_derivative": 0.0,
      "drag_term": 0.0,
      "inclination": 87.8856,
      "right_ascension": 56.5185,
      "eccentricity": 0.0001568,
      "argument_of_perigee": 82.9142,
      "mean_anomaly": 277.2165,
      "mean_motion": 13.12441873,
      "revolution_number": 22111,
      "line1": "1 47283U 20100AB  25201.89889424  .00000423  00000+0  11397-2 0  9990",
      "line2": "2 47283  87.8856  56.5185 0001568  82.9142 277.2165 13.12441873221115",
      "last_updated": "2025-07-21T05:06:13.713978+00:00",
      "constellation": "oneweb"
    },
    {
      "satellite_name": "ONEWEB-0138",
      "catalog_number": 47284,
      "epoch_year": 2025,
      "epoch_day": 201.57285017,
      "first_derivative": -1.5e-07,
      "second_derivative": 0.0,
      "drag_term": -7.780200000000001e-05,
      "inclination": 87.8854,
      "right_ascension": 56.5943,
      "eccentricity": 0.0001818,
      "argument_of_perigee": 79.6931,
      "mean_anomaly": 280.4403,
      "mean_motion": 13.12443358,
      "revolution_number": 22115,
      "line1": "1 47284U 20100AC  25201.57285017 -.00000015  00000+0 -77802-4 0  9998",
      "line2": "2 47284  87.8854  56.5943 0001818  79.6931 280.4403 13.12443358221158",
      "last_updated": "2025-07-21T05:06:13.713980+00:00",
      "constellation": "oneweb"
    },
    {
      "satellite_name": "ONEWEB-0139",
      "catalog_number": 47285,
      "epoch_year": 2025,
      "epoch_day": 201.84063203,
      "first_derivative": -1.42e-06,
      "second_derivative": 0.0,
      "drag_term": -0.00042889,
      "inclination": 87.8853,
      "right_ascension": 56.534,
      "eccentricity": 0.000177,
      "argument_of_perigee": 83.3845,
      "mean_anomaly": 276.7485,
      "mean_motion": 13.12440526,
      "revolution_number": 22126,
      "line1": "1 47285U 20100AD  25201.84063203 -.00000142  00000+0 -42889-3 0  9997",
      "line2": "2 47285  87.8853  56.5340 0001770  83.3845 276.7485 13.12440526221266",
      "last_updated": "2025-07-21T05:06:13.713982+00:00",
      "constellation": "oneweb"
    },
    {
      "satellite_name": "ONEWEB-0140",
      "catalog_number": 47286,
      "epoch_year": 2025,
      "epoch_day": 201.56635829,
      "first_derivative": -2.94e-06,
      "second_derivative": 0.0,
      "drag_term": -0.0008530499999999999,
      "inclination": 87.8855,
      "right_ascension": 56.5726,
      "eccentricity": 0.0001834,
      "argument_of_perigee": 79.8767,
      "mean_anomaly": 280.2568,
      "mean_motion": 13.12443123,
      "revolution_number": 22118,
      "line1": "1 47286U 20100AE  25201.56635829 -.00000294  00000+0 -85305-3 0  9994",
      "line2": "2 47286  87.8855  56.5726 0001834  79.8767 280.2568 13.12443123221180",
      "last_updated": "2025-07-21T05:06:13.713984+00:00",
      "constellation": "oneweb"
    },
    {
      "satellite_name": "ONEWEB-0141",
      "catalog_number": 47287,
      "epoch_year": 2025,
      "epoch_day": 201.30669348,
      "first_derivative": -1.51e-06,
      "second_derivative": 0.0,
      "drag_term": -0.00045607,
      "inclination": 87.885,
      "right_ascension": 56.6426,
      "eccentricity": 0.0001406,
      "argument_of_perigee": 83.7089,
      "mean_anomaly": 276.42,
      "mean_motion": 13.12441124,
      "revolution_number": 22114,
      "line1": "1 47287U 20100AF  25201.30669348 -.00000151  00000+0 -45607-3 0  9993",
      "line2": "2 47287  87.8850  56.6426 0001406  83.7089 276.4200 13.12441124221145",
      "last_updated": "2025-07-21T05:06:13.713987+00:00",
      "constellation": "oneweb"
    },
    {
      "satellite_name": "ONEWEB-0142",
      "catalog_number": 47288,
      "epoch_year": 2025,
      "epoch_day": 201.52434526,
      "first_derivative": -5.79e-06,
      "second_derivative": 0.0,
      "drag_term": -0.0016463,
      "inclination": 87.8864,
      "right_ascension": 56.6065,
      "eccentricity": 0.0001563,
      "argument_of_perigee": 76.9961,
      "mean_anomaly": 283.1342,
      "mean_motion": 13.12434333,
      "revolution_number": 22116,
      "line1": "1 47288U 20100AG  25201.52434526 -.00000579  00000+0 -16463-2 0  9997",
      "line2": "2 47288  87.8864  56.6065 0001563  76.9961 283.1342 13.12434333221165",
      "last_updated": "2025-07-21T05:06:13.713988+00:00",
      "constellation": "oneweb"
    },
    {
      "satellite_name": "ONEWEB-0143",
      "catalog_number": 47289,
      "epoch_year": 2025,
      "epoch_day": 201.83886987,
      "first_derivative": -8.7e-07,
      "second_derivative": 0.0,
      "drag_term": -0.00027857,
      "inclination": 87.8859,
      "right_ascension": 56.5422,
      "eccentricity": 0.0001749,
      "argument_of_perigee": 83.8757,
      "mean_anomaly": 276.257,
      "mean_motion": 13.12440535,
      "revolution_number": 22118,
      "line1": "1 47289U 20100AH  25201.83886987 -.00000087  00000+0 -27857-3 0  9998",
      "line2": "2 47289  87.8859  56.5422 0001749  83.8757 276.2570 13.12440535221181",
      "last_updated": "2025-07-21T05:06:13.713990+00:00",
      "constellation": "oneweb"
    }
  ]
}